start=new Date('2022-04-04T00:00:00.000Z').valueOf();
sats=[{"ELEMENT_SET_NO":"999","DECAY_DATE":null,"EPOCH":"2022-04-03T20:06:10.973664","TLE_LINE2":"2 48019  53.0532 277.4179 0001591  72.8179 287.2984 15.06386386 58435","LAUNCH_DATE":"2021-03-24","INCLINATION":"53.0532","MEAN_MOTION":"15.06386386","PERIAPSIS":"546.153","MEAN_ELEMENT_THEORY":"SGP4","TLE_LINE1":"1 48019U 21024AU  22093.83762701 -.00001820  00000-0 -10334-3 0  9998","OBJECT_ID":"2021-024AU","MEAN_MOTION_DOT":"-0.00001820","OBJECT_TYPE":"PAYLOAD","CENTER_NAME":"EARTH","FILE":"3386965","GP_ID":"200378063","RA_OF_ASC_NODE":"277.4179","REF_FRAME":"TEME","TIME_SYSTEM":"UTC","RCS_SIZE":"LARGE","EPHEMERIS_TYPE":"0","NORAD_CAT_ID":"48019","APOAPSIS":"548.357","ECCENTRICITY":"0.00015910","BSTAR":"-0.00010334000000","SEMIMAJOR_AXIS":"6925.390","SITE":"AFETR","REV_AT_EPOCH":"5843","MEAN_ANOMALY":"287.2984","PERIOD":"95.593","OBJECT_NAME":"STARLINK-2285","COUNTRY_CODE":"US","MEAN_MOTION_DDOT":"0.0000000000000","CLASSIFICATION_TYPE":"U","ARG_OF_PERICENTER":"72.8179"},{"MEAN_MOTION_DOT":"0.00028575","OBJECT_ID":"2021-024AV","TLE_LINE1":"1 48020U 21024AV  22093.91667824  .00028575  00000-0  19313-2 0  9998","TLE_LINE2":"2 48020  53.0538 232.0456 0001826  58.5557 343.1312 15.06364728  3590","INCLINATION":"53.0538","LAUNCH_DATE":"2021-03-24","EPOCH":"2022-04-03T22:00:00.999936","MEAN_ELEMENT_THEORY":"SGP4","PERIAPSIS":"546.057","MEAN_MOTION":"15.06364728","ELEMENT_SET_NO":"999","DECAY_DATE":null,"APOAPSIS":"548.586","NORAD_CAT_ID":"48020","EPHEMERIS_TYPE":"0","TIME_SYSTEM":"UTC","REF_FRAME":"TEME","GP_ID":"200378313","RA_OF_ASC_NODE":"232.0456","RCS_SIZE":"LARGE","FILE":"3386965","OBJECT_TYPE":"PAYLOAD","CENTER_NAME":"EARTH","REV_AT_EPOCH":"359","SITE":"AFETR","SEMIMAJOR_AXIS":"6925.457","BSTAR":"0.00193130000000","ECCENTRICITY":"0.00018260","ARG_OF_PERICENTER":"58.5557","CLASSIFICATION_TYPE":"U","MEAN_MOTION_DDOT":"0.0000000000000","COUNTRY_CODE":"US","OBJECT_NAME":"STARLINK-2294","MEAN_ANOMALY":"343.1312","PERIOD":"95.594"},{"SEMIMAJOR_AXIS":"6925.418","REV_AT_EPOCH":"5898","SITE":"AFETR","ECCENTRICITY":"0.00015990","BSTAR":"-0.00025654000000","ARG_OF_PERICENTER":"57.0481","CLASSIFICATION_TYPE":"U","OBJECT_NAME":"STARLINK-2301","MEAN_ANOMALY":"303.0662","PERIOD":"95.594","MEAN_MOTION_DDOT":"0.0000000000000","COUNTRY_CODE":"US","TLE_LINE1":"1 48021U 21024AW  22093.69386990 -.00004098  00000-0 -25654-3 0  9998","MEAN_MOTION_DOT":"-0.00004098","OBJECT_ID":"2021-024AW","DECAY_DATE":null,"ELEMENT_SET_NO":"999","PERIAPSIS":"546.176","MEAN_MOTION":"15.06377266","MEAN_ELEMENT_THEORY":"SGP4","TLE_LINE2":"2 48021  53.0539 238.0604 0001599  57.0481 303.0662 15.06377266 58987","LAUNCH_DATE":"2021-03-24","INCLINATION":"53.0539","EPOCH":"2022-04-03T16:39:10.359360","RCS_SIZE":"LARGE","TIME_SYSTEM":"UTC","GP_ID":"200379065","REF_FRAME":"TEME","RA_OF_ASC_NODE":"238.0604","APOAPSIS":"548.391","NORAD_CAT_ID":"48021","EPHEMERIS_TYPE":"0","OBJECT_TYPE":"PAYLOAD","CENTER_NAME":"EARTH","FILE":"3386965"},{"DECAY_DATE":null,"ELEMENT_SET_NO":"999","PERIAPSIS":"546.173","MEAN_ELEMENT_THEORY":"SGP4","MEAN_MOTION":"15.06392565","EPOCH":"2022-04-03T19:51:32.448960","TLE_LINE2":"2 48022  53.0552 297.4581 0001535  47.6504 312.4615 15.06392565 58214","LAUNCH_DATE":"2021-03-24","INCLINATION":"53.0552","TLE_LINE1":"1 48022U 21024AX  22093.82745890  .00000552  00000-0  55978-4 0  9994","OBJECT_ID":"2021-024AX","MEAN_MOTION_DOT":"0.00000552","CENTER_NAME":"EARTH","OBJECT_TYPE":"PAYLOAD","FILE":"3386965","RCS_SIZE":"LARGE","REF_FRAME":"TEME","GP_ID":"200379815","RA_OF_ASC_NODE":"297.4581","TIME_SYSTEM":"UTC","EPHEMERIS_TYPE":"0","APOAPSIS":"548.299","NORAD_CAT_ID":"48022","ECCENTRICITY":"0.00015350","BSTAR":"0.00005597800000","SEMIMAJOR_AXIS":"6925.371","SITE":"AFETR","REV_AT_EPOCH":"5821","PERIOD":"95.593","MEAN_ANOMALY":"312.4615","OBJECT_NAME":"STARLINK-2298","COUNTRY_CODE":"US","MEAN_MOTION_DDOT":"0.0000000000000","CLASSIFICATION_TYPE":"U","ARG_OF_PERICENTER":"47.6504"},{"RCS_SIZE":"LARGE","TIME_SYSTEM":"UTC","REF_FRAME":"TEME","GP_ID":"200378563","RA_OF_ASC_NODE":"297.3841","APOAPSIS":"548.345","NORAD_CAT_ID":"48023","EPHEMERIS_TYPE":"0","CENTER_NAME":"EARTH","OBJECT_TYPE":"PAYLOAD","FILE":"3386965","TLE_LINE1":"1 48023U 21024AY  22093.84315581 -.00002460  00000-0 -14637-3 0  9995","MEAN_MOTION_DOT":"-0.00002460","OBJECT_ID":"2021-024AY","ELEMENT_SET_NO":"999","DECAY_DATE":null,"PERIAPSIS":"546.167","MEAN_MOTION":"15.06386192","MEAN_ELEMENT_THEORY":"SGP4","INCLINATION":"53.0560","TLE_LINE2":"2 48023  53.0560 297.3841 0001573  69.8631 290.2527 15.06386192 58215","LAUNCH_DATE":"2021-03-24","EPOCH":"2022-04-03T20:14:08.661984","ARG_OF_PERICENTER":"69.8631","CLASSIFICATION_TYPE":"U","OBJECT_NAME":"STARLINK-2292","MEAN_ANOMALY":"290.2527","PERIOD":"95.593","MEAN_MOTION_DDOT":"0.0000000000000","COUNTRY_CODE":"US","SEMIMAJOR_AXIS":"6925.391","SITE":"AFETR","REV_AT_EPOCH":"5821","ECCENTRICITY":"0.00015730","BSTAR":"-0.00014637000000"},{"ELEMENT_SET_NO":"999","DECAY_DATE":null,"TLE_LINE2":"2 48026  53.0523 302.1756 0001569  63.3664 296.7486 15.06385560 58096","LAUNCH_DATE":"2021-03-24","INCLINATION":"53.0523","EPOCH":"2022-04-03T21:19:49.178496","MEAN_MOTION":"15.06385560","PERIAPSIS":"546.171","MEAN_ELEMENT_THEORY":"SGP4","TLE_LINE1":"1 48026U 21024BB  22093.88876364 -.00003126  00000-0 -19115-3 0  9999","MEAN_MOTION_DOT":"-0.00003126","OBJECT_ID":"2021-024BB","CENTER_NAME":"EARTH","OBJECT_TYPE":"PAYLOAD","FILE":"3386965","TIME_SYSTEM":"UTC","RA_OF_ASC_NODE":"302.1756","GP_ID":"200378813","REF_FRAME":"TEME","RCS_SIZE":"LARGE","APOAPSIS":"548.344","NORAD_CAT_ID":"48026","EPHEMERIS_TYPE":"0","ECCENTRICITY":"0.00015690","BSTAR":"-0.00019115000000","SEMIMAJOR_AXIS":"6925.393","SITE":"AFETR","REV_AT_EPOCH":"5809","OBJECT_NAME":"STARLINK-2278","PERIOD":"95.593","MEAN_ANOMALY":"296.7486","MEAN_MOTION_DDOT":"0.0000000000000","COUNTRY_CODE":"US","ARG_OF_PERICENTER":"63.3664","CLASSIFICATION_TYPE":"U"},{"CLASSIFICATION_TYPE":"U","ARG_OF_PERICENTER":"81.3616","COUNTRY_CODE":"US","MEAN_MOTION_DDOT":"0.0000000000000","PERIOD":"95.593","MEAN_ANOMALY":"278.7541","OBJECT_NAME":"STARLINK-2300","SITE":"AFETR","REV_AT_EPOCH":"5843","SEMIMAJOR_AXIS":"6925.386","BSTAR":"-0.00008313800000","ECCENTRICITY":"0.00014870","EPHEMERIS_TYPE":"0","NORAD_CAT_ID":"48027","APOAPSIS":"548.281","RA_OF_ASC_NODE":"277.3647","GP_ID":"200379565","REF_FRAME":"TEME","TIME_SYSTEM":"UTC","RCS_SIZE":"LARGE","FILE":"3386965","OBJECT_TYPE":"PAYLOAD","CENTER_NAME":"EARTH","OBJECT_ID":"2021-024BC","MEAN_MOTION_DOT":"-0.00001519","TLE_LINE1":"1 48027U 21024BC  22093.84867426 -.00001519  00000-0 -83138-4 0  9996","EPOCH":"2022-04-03T20:22:05.456064","INCLINATION":"53.0543","TLE_LINE2":"2 48027  53.0543 277.3647 0001487  81.3616 278.7541 15.06387627 58433","LAUNCH_DATE":"2021-03-24","MEAN_ELEMENT_THEORY":"SGP4","PERIAPSIS":"546.222","MEAN_MOTION":"15.06387627","ELEMENT_SET_NO":"999","DECAY_DATE":null},{"SEMIMAJOR_AXIS":"6925.381","REV_AT_EPOCH":"358","SITE":"AFETR","ECCENTRICITY":"0.00017100","BSTAR":"-0.00152490000000","ARG_OF_PERICENTER":"51.2229","CLASSIFICATION_TYPE":"U","OBJECT_NAME":"STARLINK-2264","PERIOD":"95.593","MEAN_ANOMALY":"250.4406","MEAN_MOTION_DDOT":"0.0000000000000","COUNTRY_CODE":"US","TLE_LINE1":"1 48028U 21024BD  22093.91667824 -.00022916  00000-0 -15249-2 0  9995","MEAN_MOTION_DOT":"-0.00022916","OBJECT_ID":"2021-024BD","DECAY_DATE":null,"ELEMENT_SET_NO":"999","TLE_LINE2":"2 48028  53.0537 232.0619 0001710  51.2229 250.4406 15.06389361  3589","INCLINATION":"53.0537","LAUNCH_DATE":"2021-03-24","EPOCH":"2022-04-03T22:00:00.999936","PERIAPSIS":"546.062","MEAN_ELEMENT_THEORY":"SGP4","MEAN_MOTION":"15.06389361","TIME_SYSTEM":"UTC","REF_FRAME":"TEME","GP_ID":"200379316","RA_OF_ASC_NODE":"232.0619","RCS_SIZE":"LARGE","APOAPSIS":"548.430","NORAD_CAT_ID":"48028","EPHEMERIS_TYPE":"0","CENTER_NAME":"EARTH","OBJECT_TYPE":"PAYLOAD","FILE":"3386965"},{"OBJECT_NAME":"STARLINK-2299","PERIOD":"95.593","MEAN_ANOMALY":"301.5411","MEAN_MOTION_DDOT":"0.0000000000000","COUNTRY_CODE":"US","ARG_OF_PERICENTER":"58.5755","CLASSIFICATION_TYPE":"U","ECCENTRICITY":"0.00018120","BSTAR":"0.00019423000000","SEMIMAJOR_AXIS":"6925.409","REV_AT_EPOCH":"5822","SITE":"AFETR","OBJECT_TYPE":"PAYLOAD","CENTER_NAME":"EARTH","FILE":"3386965","TIME_SYSTEM":"UTC","RA_OF_ASC_NODE":"297.1972","GP_ID":"200378064","REF_FRAME":"TEME","RCS_SIZE":"LARGE","APOAPSIS":"548.529","NORAD_CAT_ID":"48029","EPHEMERIS_TYPE":"0","ELEMENT_SET_NO":"999","DECAY_DATE":null,"TLE_LINE2":"2 48029  53.0530 297.1972 0001812  58.5755 301.5411 15.06380308 58221","LAUNCH_DATE":"2021-03-24","INCLINATION":"53.0530","EPOCH":"2022-04-03T21:17:50.470944","PERIAPSIS":"546.019","MEAN_ELEMENT_THEORY":"SGP4","MEAN_MOTION":"15.06380308","TLE_LINE1":"1 48029U 21024BE  22093.88738971  .00002611  00000-0  19423-3 0  9991","MEAN_MOTION_DOT":"0.00002611","OBJECT_ID":"2021-024BE"},{"ECCENTRICITY":"0.00016420","BSTAR":"-0.00018093000000","SEMIMAJOR_AXIS":"6925.370","SITE":"AFETR","REV_AT_EPOCH":"5808","MEAN_ANOMALY":"289.3113","PERIOD":"95.593","OBJECT_NAME":"STARLINK-2268","COUNTRY_CODE":"US","MEAN_MOTION_DDOT":"0.0000000000000","CLASSIFICATION_TYPE":"U","ARG_OF_PERICENTER":"70.8053","DECAY_DATE":null,"ELEMENT_SET_NO":"999","EPOCH":"2022-04-03T20:21:26.435232","LAUNCH_DATE":"2021-03-24","TLE_LINE2":"2 48030  53.0555 302.3496 0001642  70.8053 289.3113 15.06393010 58089","INCLINATION":"53.0555","MEAN_ELEMENT_THEORY":"SGP4","PERIAPSIS":"546.098","MEAN_MOTION":"15.06393010","TLE_LINE1":"1 48030U 21024BF  22093.84822263 -.00002975  00000-0 -18093-3 0  9994","OBJECT_ID":"2021-024BF","MEAN_MOTION_DOT":"-0.00002975","OBJECT_TYPE":"PAYLOAD","CENTER_NAME":"EARTH","FILE":"3386965","GP_ID":"200378314","RA_OF_ASC_NODE":"302.3496","REF_FRAME":"TEME","TIME_SYSTEM":"UTC","RCS_SIZE":"LARGE","EPHEMERIS_TYPE":"0","APOAPSIS":"548.372","NORAD_CAT_ID":"48030"}];
